      2.10          N: GNSS NAV DATA                        RINEX VERSION / TYPE
fic2rin                                 11/19/2021 00:17:49 PGM / RUN BY / DATE
                                                            END OF HEADER
17 21 11 18  4  0  0.0 5.352366715670e-04 5.456968210638e-12 0.000000000000e+00
    8.000000000000e+01-8.606250000000e+01 4.280535444340e-09 2.155744142734e+00
   -4.589557647705e-06 1.376868598163e-02 2.138316631317e-06 5.153703557968e+03
    3.600000000000e+05 1.862645149231e-07-1.281759574843e+00-1.061707735062e-07
    9.804333820714e-01 3.444687500000e+02-1.536800953083e+00-8.021762710044e-09
   -3.735869899691e-10 1.000000000000e+00 2.184000000000e+03 0.000000000000e+00
    2.400000000000e+00 0.000000000000e+00-1.117587089539e-08 8.000000000000e+01
    3.528000000000e+05 4.000000000000e+00
23 21 11 18  4  0  0.0 3.171153366566e-05-4.433786671143e-12 0.000000000000e+00
    4.700000000000e+01 3.109375000000e+01 4.454471260894e-09-6.253800204224e-01
    1.600012183189e-06 1.879685558379e-03 8.078292012215e-06 5.153681735992e+03
    3.600000000000e+05-3.725290298462e-09 7.237724408730e-01-9.872019290924e-08
    9.662577219754e-01 2.307812500000e+02 2.792366909496e+00-7.918186967127e-09
    4.425184326689e-10 1.000000000000e+00 2.184000000000e+03 0.000000000000e+00
    2.400000000000e+00 0.000000000000e+00-8.381903171539e-09 5.590000000000e+02
    3.528000000000e+05 4.000000000000e+00
18 21 11 18  4  0  0.0 2.938904799521e-04-5.911715561524e-12 0.000000000000e+00
    2.400000000000e+01-7.787500000000e+01 3.994809256983e-09 1.333845738772e-01
   -4.246830940247e-06 2.080336096697e-03 1.063756644726e-05 5.153645677567e+03
    3.600000000000e+05 2.793967723846e-08-2.752105976146e-01 1.862645149231e-09
    9.702303374623e-01 1.793125000000e+02 3.051319723988e+00-7.737107995890e-09
   -7.893185925733e-11 1.000000000000e+00 2.184000000000e+03 0.000000000000e+00
    2.400000000000e+00 0.000000000000e+00-8.381903171539e-09 2.800000000000e+02
    3.528000000000e+05 4.000000000000e+00
28 21 11 18  4  0  0.0 4.606666043401e-04-7.503331289627e-12 0.000000000000e+00
    4.100000000000e+01 1.194375000000e+02 4.360538776800e-09 2.612279746794e+00
    6.044283509254e-06 1.733767625410e-02 4.017725586891e-06 5.153717702866e+03
    3.600000000000e+05 2.607703208923e-07-2.297179603917e+00-5.960464477539e-08
    9.706612648521e-01 3.032812500000e+02-1.313385389922e+00-7.955331371484e-09
    2.725113511916e-10 1.000000000000e+00 2.184000000000e+03 0.000000000000e+00
    2.400000000000e+00 6.300000000000e+01-1.117587089539e-08 4.100000000000e+01
    3.528000000000e+05 4.000000000000e+00
12 21 11 18  3 59 44.0-1.279404386878e-04-5.570655048359e-12 0.000000000000e+00
    1.000000000000e+01 1.032187500000e+02 4.466257466122e-09-1.434738865536e+00
    5.597248673439e-06 8.353846264072e-03 4.280358552933e-06 5.153652999878e+03
    3.599840000000e+05 1.136213541031e-07-2.319336171170e+00 1.657754182816e-07
    9.715607195523e-01 3.044062500000e+02 1.231715107661e+00-8.153196756228e-09
    3.728726745007e-10 1.000000000000e+00 2.184000000000e+03 0.000000000000e+00
    2.400000000000e+00 0.000000000000e+00-1.257285475731e-08 1.000000000000e+01
    3.575100000000e+05 4.000000000000e+00
 8 21 11 18  3 59 44.0-4.460662603378e-05-1.591615728103e-12 0.000000000000e+00
    1.000000000000e+00-6.912500000000e+01 4.801985736266e-09 2.233095595315e+00
   -3.468245267868e-06 6.767066079192e-03 2.136453986168e-06 5.153679645538e+03
    3.599840000000e+05-1.452863216400e-07-1.362373293779e+00 1.955777406693e-07
    9.654057184861e-01 3.414062500000e+02 5.480729249801e-02-8.434279893041e-09
   -2.389385241772e-10 1.000000000000e+00 2.184000000000e+03 0.000000000000e+00
    2.400000000000e+00 0.000000000000e+00 5.122274160385e-09 1.000000000000e+00
    3.576000000000e+05 4.000000000000e+00
 5 21 11 18  3 59 44.0-6.144074723125e-05-1.250555214938e-12 0.000000000000e+00
    1.300000000000e+01 3.018750000000e+01 4.659479800322e-09 2.525823639219e+00
    1.469627022743e-06 5.995373707265e-03 7.988885045052e-06 5.153613420486e+03
    3.599840000000e+05 4.284083843231e-08 7.117844050661e-01-9.872019290924e-08
    9.583732664705e-01 2.244375000000e+02 1.016361707979e+00-7.946045270394e-09
    4.843058875699e-10 1.000000000000e+00 2.184000000000e+03 0.000000000000e+00
    2.400000000000e+00 0.000000000000e+00-1.117587089539e-08 1.300000000000e+01
    3.578400000000e+05 4.000000000000e+00
21 21 11 18  3 59 44.0 1.513254828751e-04 1.136868377216e-12 0.000000000000e+00
    1.000000000000e+00-1.017187500000e+02 4.252319983339e-09 2.264387218462e+00
   -5.014240741730e-06 2.422110131010e-02 1.048855483532e-05 5.153624776840e+03
    3.599840000000e+05 3.427267074585e-07-3.727635737277e-01 5.029141902924e-08
    9.590744709013e-01 1.688750000000e+02-1.057259410070e+00-7.554243235981e-09
   -3.228705917133e-10 1.000000000000e+00 2.184000000000e+03 0.000000000000e+00
    2.400000000000e+00 0.000000000000e+00-1.024454832077e-08 1.000000000000e+00
    3.585300000000e+05 4.000000000000e+00
 5 21 11 18  5 59 44.0-6.144959479570e-05-1.250555214938e-12 0.000000000000e+00
    1.400000000000e+01 3.034375000000e+01 4.684480841716e-09-2.707120298701e+00
    1.562759280205e-06 5.995250190608e-03 8.091330528259e-06 5.153613628387e+03
    3.671840000000e+05 1.154839992523e-07 7.117269899202e-01-5.774199962616e-08
    9.583767921031e-01 2.221250000000e+02 1.016339433588e+00-7.961403052965e-09
    5.257361847366e-10 1.000000000000e+00 2.184000000000e+03 0.000000000000e+00
    2.400000000000e+00 0.000000000000e+00-1.117587089539e-08 1.400000000000e+01
    3.600000000000e+05 4.000000000000e+00
12 21 11 18  5 59 44.0-1.279804855585e-04-5.570655048359e-12 0.000000000000e+00
    1.100000000000e+01 1.057812500000e+02 4.504473343681e-09-3.845912927311e-01
    5.535781383514e-06 8.353926823474e-03 4.721805453300e-06 5.153652515411e+03
    3.671840000000e+05-6.519258022308e-08-2.319395943077e+00 7.078051567078e-08
    9.715626857142e-01 3.003125000000e+02 1.231761621141e+00-8.340704566681e-09
    4.018024509706e-10 1.000000000000e+00 2.184000000000e+03 0.000000000000e+00
    2.400000000000e+00 0.000000000000e+00-1.257285475731e-08 1.100000000000e+01
    3.600000000000e+05 4.000000000000e+00
 8 21 11 18  5 59 44.0-4.461780190468e-05-1.591615728103e-12 0.000000000000e+00
    1.100000000000e+01-6.475000000000e+01 4.709839040844e-09-2.999856312582e+00
   -3.254041075706e-06 6.767701241188e-03 2.358108758926e-06 5.153678283691e+03
    3.671840000000e+05-1.210719347000e-07-1.362433775201e+00-3.352761268616e-08
    9.654050996717e-01 3.382500000000e+02 5.475367801332e-02-8.254272395006e-09
   -1.617924535908e-10 1.000000000000e+00 2.184000000000e+03 0.000000000000e+00
    2.400000000000e+00 0.000000000000e+00 5.122274160385e-09 1.100000000000e+01
    3.600000000000e+05 4.000000000000e+00
21 21 11 18  5 59 44.0 1.513333991170e-04 1.136868377216e-12 0.000000000000e+00
    2.000000000000e+00-9.075000000000e+01 4.216247052185e-09-2.968603863455e+00
   -4.457309842110e-06 2.422203856986e-02 1.034140586853e-05 5.153623373032e+03
    3.671840000000e+05 9.126961231232e-08-3.728195157150e-01 3.892928361893e-07
    9.590734453958e-01 1.707500000000e+02-1.057244220591e+00-7.474954218990e-09
   -4.643050544549e-12 1.000000000000e+00 2.184000000000e+03 0.000000000000e+00
    2.400000000000e+00 0.000000000000e+00-1.024454832077e-08 2.000000000000e+00
    3.600000000000e+05 4.000000000000e+00
 1 21 11 18  6  0  0.0 5.077486857772e-04-1.045918907039e-11 0.000000000000e+00
    2.400000000000e+01-7.934375000000e+01 3.806229973328e-09 9.518575639339e-01
   -4.017725586891e-06 1.110970880836e-02 1.115165650845e-05 5.153678773880e+03
    3.672000000000e+05-9.499490261078e-08-2.843964416362e-01 1.080334186554e-07
    9.864653751339e-01 1.796250000000e+02 8.863537757811e-01-7.743893992839e-09
   -1.078616357272e-10 1.000000000000e+00 2.184000000000e+03 0.000000000000e+00
    2.400000000000e+00 0.000000000000e+00 5.122274160385e-09 2.400000000000e+01
    3.600000000000e+05 4.000000000000e+00
 2 21 11 18  6  0  0.0-6.424495950341e-04-1.591615728103e-12 0.000000000000e+00
    5.900000000000e+01-1.126562500000e+02 4.177316859157e-09 1.156390532467e+00
   -6.124377250671e-06 2.049058431294e-02 1.079775393009e-05 5.153806226730e+03
    3.672000000000e+05-2.272427082062e-07-3.717654130188e-01-4.433095455170e-07
    9.648578834608e-01 1.804062500000e+02-1.479595595530e+00-8.037477650349e-09
   -7.143154683922e-11 1.000000000000e+00 2.184000000000e+03 0.000000000000e+00
    2.400000000000e+00 0.000000000000e+00-1.769512891769e-08 5.900000000000e+01
    3.600000000000e+05 4.000000000000e+00
 6 21 11 18  6  0  0.0 1.206402666867e-04 9.208633855451e-12 0.000000000000e+00
    1.800000000000e+01-9.365625000000e+01 3.661938248712e-09 1.347596845412e+00
   -4.928559064865e-06 2.389474422671e-03 1.159869134426e-05 5.153621995926e+03
    3.672000000000e+05 4.842877388000e-08-2.926511938912e-01-2.235174179077e-08
    9.858674337015e-01 1.670000000000e+02-1.040290340085e+00-7.525670617246e-09
   -4.821629411647e-11 1.000000000000e+00 2.184000000000e+03 0.000000000000e+00
    2.400000000000e+00 0.000000000000e+00 4.190951585770e-09 1.800000000000e+01
    3.600000000000e+05 4.000000000000e+00
 3 21 11 18  6  0  0.0-1.641735434532e-05-9.777068044059e-12 0.000000000000e+00
    9.900000000000e+01 3.181250000000e+01 4.497687346731e-09-2.198803353100e-01
    1.624226570129e-06 3.879005904309e-03 7.661059498787e-06 5.153728994370e+03
    3.672000000000e+05 1.117587089539e-08 7.509280683796e-01 7.636845111847e-08
    9.713587242127e-01 2.368125000000e+02 1.001102154323e+00-8.005333454271e-09
    4.685909472653e-10 1.000000000000e+00 2.184000000000e+03 0.000000000000e+00
    2.400000000000e+00 0.000000000000e+00 1.862645149231e-09 9.900000000000e+01
    3.600000000000e+05 4.000000000000e+00
